{
  "type": "FeatureCollection",
  "features": [
    {
      "type": "Feature",
      "properties": {
        "norad_id": 29968,
        "name": "FENGYUN 1C DEB",
        "group": "fengyun-1c-debris",
        "lat": 8.849336848120716,
        "lon": 171.06283048725115,
        "alt_km": 923.750763650718,
        "timestamp": "2025-12-26T06:43:29.784427+00:00",
        "meta_object_name": "FENGYUN 1C DEB",
        "meta_object_id": "1999-025KS",
        "meta_epoch": "2025-12-25T21:39:09.513216",
        "meta_mean_motion": 14.0726696,
        "meta_eccentricity": 0.00894654,
        "meta_inclination": 98.8056,
        "meta_ra_of_asc_node": 349.3117,
        "meta_arg_of_pericenter": 317.6276,
        "meta_mean_anomaly": 99.8767,
        "meta_ephemeris_type": 0,
        "meta_classification_type": "U",
        "meta_norad_cat_id": 29968,
        "meta_element_set_no": 999,
        "meta_rev_at_epoch": 97234,
        "meta_bstar": 0.00023599471,
        "meta_mean_motion_dot": 3.67e-06,
        "meta_mean_motion_ddot": 0,
        "tle_line1": "1 29968U 99025KS  25359.90219344  .00000367  00000+0  23599-3 0  9991",
        "tle_line2": "2 29968  98.8056 349.3117 0089465 317.6276  99.8767 14.07266960972346"
      },
      "geometry": {
        "type": "Point",
        "coordinates": [
          171.06283048725115,
          8.849336848120716
        ]
      }
    },
    {
      "type": "Feature",
      "properties": {
        "norad_id": 29969,
        "name": "FENGYUN 1C DEB",
        "group": "fengyun-1c-debris",
        "lat": 54.6118113641975,
        "lon": 72.21046302803286,
        "alt_km": 755.1592867727404,
        "timestamp": "2025-12-26T06:43:29.784438+00:00",
        "meta_object_name": "FENGYUN 1C DEB",
        "meta_object_id": "1999-025KT",
        "meta_epoch": "2025-12-25T17:46:06.226176",
        "meta_mean_motion": 14.33332457,
        "meta_eccentricity": 0.00408269,
        "meta_inclination": 98.7701,
        "meta_ra_of_asc_node": 84.2154,
        "meta_arg_of_pericenter": 10.8436,
        "meta_mean_anomaly": 140.3848,
        "meta_ephemeris_type": 0,
        "meta_classification_type": "U",
        "meta_norad_cat_id": 29969,
        "meta_element_set_no": 999,
        "meta_rev_at_epoch": 97848,
        "meta_bstar": 0.0017432013,
        "meta_mean_motion_dot": 4.805e-05,
        "meta_mean_motion_ddot": 0,
        "tle_line1": "1 29969U 99025KT  25359.74034984  .00004805  00000+0  17432-2 0  9998",
        "tle_line2": "2 29969  98.7701  84.2154 0040826  10.8436 140.3848 14.33332457978484"
      },
      "geometry": {
        "type": "Point",
        "coordinates": [
          72.21046302803286,
          54.6118113641975
        ]
      }
    },
    {
      "type": "Feature",
      "properties": {
        "norad_id": 29970,
        "name": "FENGYUN 1C DEB",
        "group": "fengyun-1c-debris",
        "lat": 58.9674547935026,
        "lon": -85.86981546446748,
        "alt_km": 735.4202874441871,
        "timestamp": "2025-12-26T06:43:29.784448+00:00",
        "meta_object_name": "FENGYUN 1C DEB",
        "meta_object_id": "1999-025KU",
        "meta_epoch": "2025-12-25T17:19:24.440160",
        "meta_mean_motion": 14.43988221,
        "meta_eccentricity": 0.00914416,
        "meta_inclination": 98.8098,
        "meta_ra_of_asc_node": 288.4901,
        "meta_arg_of_pericenter": 148.6785,
        "meta_mean_anomaly": 251.475,
        "meta_ephemeris_type": 0,
        "meta_classification_type": "U",
        "meta_norad_cat_id": 29970,
        "meta_element_set_no": 999,
        "meta_rev_at_epoch": 99308,
        "meta_bstar": 0.00040182592,
        "meta_mean_motion_dot": 1.395e-05,
        "meta_mean_motion_ddot": 0,
        "tle_line1": "1 29970U 99025KU  25359.72181065  .00001395  00000+0  40183-3 0  9992",
        "tle_line2": "2 29970  98.8098 288.4901 0091441 148.6785 251.4750 14.43988221993086"
      },
      "geometry": {
        "type": "Point",
        "coordinates": [
          -85.86981546446748,
          58.9674547935026
        ]
      }
    },
    {
      "type": "Feature",
      "properties": {
        "norad_id": 29971,
        "name": "FENGYUN 1C DEB",
        "group": "fengyun-1c-debris",
        "lat": -44.8036276326721,
        "lon": -148.97420679013857,
        "alt_km": 839.6258704554639,
        "timestamp": "2025-12-26T06:43:29.784458+00:00",
        "meta_object_name": "FENGYUN 1C DEB",
        "meta_object_id": "1999-025KV",
        "meta_epoch": "2025-12-25T16:41:18.004128",
        "meta_mean_motion": 14.18220443,
        "meta_eccentricity": 0.00241564,
        "meta_inclination": 98.6821,
        "meta_ra_of_asc_node": 39.1824,
        "meta_arg_of_pericenter": 131.7094,
        "meta_mean_anomaly": 349.0234,
        "meta_ephemeris_type": 0,
        "meta_classification_type": "U",
        "meta_norad_cat_id": 29971,
        "meta_element_set_no": 999,
        "meta_rev_at_epoch": 97523,
        "meta_bstar": 0.00078505613,
        "meta_mean_motion_dot": 1.576e-05,
        "meta_mean_motion_ddot": 0,
        "tle_line1": "1 29971U 99025KV  25359.69534727  .00001576  00000+0  78506-3 0  9997",
        "tle_line2": "2 29971  98.6821  39.1824 0024156 131.7094 349.0234 14.18220443975234"
      },
      "geometry": {
        "type": "Point",
        "coordinates": [
          -148.97420679013857,
          -44.8036276326721
        ]
      }
    },
    {
      "type": "Feature",
      "properties": {
        "norad_id": 29972,
        "name": "FENGYUN 1C DEB",
        "group": "fengyun-1c-debris",
        "lat": -35.41248795429402,
        "lon": -172.8594228098936,
        "alt_km": 697.0363447929203,
        "timestamp": "2025-12-26T06:43:29.784468+00:00",
        "meta_object_name": "FENGYUN 1C DEB",
        "meta_object_id": "1999-025KW",
        "meta_epoch": "2025-12-25T23:29:59.409312",
        "meta_mean_motion": 14.66520345,
        "meta_eccentricity": 0.00640128,
        "meta_inclination": 98.9208,
        "meta_ra_of_asc_node": 13.2255,
        "meta_arg_of_pericenter": 331.395,
        "meta_mean_anomaly": 96.6459,
        "meta_ephemeris_type": 0,
        "meta_classification_type": "U",
        "meta_norad_cat_id": 29972,
        "meta_element_set_no": 999,
        "meta_rev_at_epoch": 99680,
        "meta_bstar": 0.0012160389,
        "meta_mean_motion_dot": 6.895e-05,
        "meta_mean_motion_ddot": 0,
        "tle_line1": "1 29972U 99025KW  25359.97915983  .00006895  00000+0  12160-2 0  9998",
        "tle_line2": "2 29972  98.9208  13.2255 0064012 331.3950  96.6459 14.66520345996809"
      },
      "geometry": {
        "type": "Point",
        "coordinates": [
          -172.8594228098936,
          -35.41248795429402
        ]
      }
    },
    {
      "type": "Feature",
      "properties": {
        "norad_id": 29973,
        "name": "FENGYUN 1C DEB",
        "group": "fengyun-1c-debris",
        "lat": -29.752666482677405,
        "lon": 5.567496998381015,
        "alt_km": 910.6684332747727,
        "timestamp": "2025-12-26T06:43:29.784478+00:00",
        "meta_object_name": "FENGYUN 1C DEB",
        "meta_object_id": "1999-025KX",
        "meta_epoch": "2025-12-25T12:39:55.733760",
        "meta_mean_motion": 14.06562627,
        "meta_eccentricity": 0.0059603,
        "meta_inclination": 98.8427,
        "meta_ra_of_asc_node": 359.7272,
        "meta_arg_of_pericenter": 113.4358,
        "meta_mean_anomaly": 8.7954,
        "meta_ephemeris_type": 0,
        "meta_classification_type": "U",
        "meta_norad_cat_id": 29973,
        "meta_element_set_no": 999,
        "meta_rev_at_epoch": 96898,
        "meta_bstar": 0.00074075,
        "meta_mean_motion_dot": 1.204e-05,
        "meta_mean_motion_ddot": 0,
        "tle_line1": "1 29973U 99025KX  25359.52772840  .00001204  00000+0  74075-3 0  9996",
        "tle_line2": "2 29973  98.8427 359.7272 0059603 113.4358   8.7954 14.06562627968985"
      },
      "geometry": {
        "type": "Point",
        "coordinates": [
          5.567496998381015,
          -29.752666482677405
        ]
      }
    },
    {
      "type": "Feature",
      "properties": {
        "norad_id": 29974,
        "name": "FENGYUN 1C DEB",
        "group": "fengyun-1c-debris",
        "lat": -53.56162682025824,
        "lon": -107.83719073055225,
        "alt_km": 882.1469385991686,
        "timestamp": "2025-12-26T06:43:29.784488+00:00",
        "meta_object_name": "FENGYUN 1C DEB",
        "meta_object_id": "1999-025KY",
        "meta_epoch": "2025-12-25T18:19:09.435360",
        "meta_mean_motion": 14.14899143,
        "meta_eccentricity": 0.00458885,
        "meta_inclination": 98.8931,
        "meta_ra_of_asc_node": 83.8916,
        "meta_arg_of_pericenter": 45.0946,
        "meta_mean_anomaly": 78.0033,
        "meta_ephemeris_type": 0,
        "meta_classification_type": "U",
        "meta_norad_cat_id": 29974,
        "meta_element_set_no": 999,
        "meta_rev_at_epoch": 97109,
        "meta_bstar": 0.0010376038,
        "meta_mean_motion_dot": 1.981e-05,
        "meta_mean_motion_ddot": 0,
        "tle_line1": "1 29974U 99025KY  25359.76330365  .00001981  00000+0  10376-2 0  9990",
        "tle_line2": "2 29974  98.8931  83.8916 0045888  45.0946  78.0033 14.14899143971098"
      },
      "geometry": {
        "type": "Point",
        "coordinates": [
          -107.83719073055225,
          -53.56162682025824
        ]
      }
    }
  ]
}